STARLINK-31353          
1 58980C 24031R   26120.64840278 -.00011940  00000+0 -40252-3 0  1208
2 58980  53.1591  55.4602 0001234  93.1544  17.9441 15.30189285    13
STARLINK-31339          
1 58981C 24031S   26120.59215278 -.00026962  00000+0 -90876-3 0  1206
2 58981  53.1591  55.7773 0001267  96.1999  35.7820 15.30204005    16
STARLINK-31384          
1 58983C 24031U   26120.61020833  .00003009  00000+0  10142-3 0  1205
2 58983  53.1588  55.7611 0001248  89.1869 107.4166 15.30186679    18
STARLINK-31379          
1 58984C 24031V   26120.59631944 -.00005983  00000+0 -20167-3 0  1207
2 58984  53.1590  55.8716 0001226  92.7165   4.0700 15.30192777    16
STARLINK-31385          
1 58985C 24031W   26120.59770833 -.00036946  00000+0 -11212-2 0  1202
2 58985  53.1613  53.3752 0001220  88.7323 179.3474 15.33564165    12
STARLINK-31229          
1 58986C 24031X   26120.60395833 -.00024871  00000+0 -83825-3 0  1202
2 58986  53.1591  55.9045 0001264  92.4037  11.5854 15.30204107    16
STARLINK-31468          
1 58998C 24036A   26120.59215278  .00034327  00000+0  11569-2 0  1202
2 58998  53.1592 196.7702 0001041  80.2085 285.0334 15.30177539    14
STARLINK-31440          
1 58999C 24036B   26120.63034722  .00052136  00000+0  17569-2 0  1205
2 58999  53.1595 196.6077 0001268  77.8734 126.2686 15.30170849    19
STARLINK-31529          
1 59000C 24036C   26120.62756944  .00046177  00000+0  15562-2 0  1204
2 59000  53.1592 194.6876 0001361  73.5938  19.2693 15.30170156    18
STARLINK-31431          
1 59002C 24036E   26120.60048611  .00037086  00000+0  12497-2 0  1202
2 59002  53.1570 197.2291 0001186  79.2043  76.0467 15.30179776    18
STARLINK-31435          
1 59004C 24036G   26120.59979167  .00017058  00000+0  57484-3 0  1204
2 59004  53.1598 196.7601 0001156  78.8853 311.0216 15.30187023    18
STARLINK-31484          
1 59005C 24036H   26120.58729167  .00022660  00000+0  76362-3 0  1208
2 59005  53.1602 196.8516 0001309  82.9918 220.5668 15.30184211    10
STARLINK-31450          
1 59006C 24036J   26120.63868056  .00057520  00000+0  19383-2 0  1208
2 59006  53.1598 196.6910 0001308  71.4372 114.6586 15.30168472    10
STARLINK-31456          
1 59007C 24036K   26120.62618056  .00049229  00000+0  16589-2 0  1203
2 59007  53.1600 196.7045 0001203  80.1218  60.3407 15.30172720    15
STARLINK-31460          
1 59008C 24036L   26120.62201389  .00051969  00000+0  17512-2 0  1202
2 59008  53.1579 197.0495 0001222  77.2510 237.3767 15.30173147    16
STARLINK-31488          
1 59009C 24036M   26120.61715278  .00044214  00000+0  14899-2 0  1209
2 59009  53.1600 196.7011 0001583  68.3038  45.6665 15.30173624    15
STARLINK-31528          
1 59010C 24036N   26120.60326389  .00050942  00000+0  17171-2 0  1202
2 59010  53.1580 197.3650 0001270  80.4655  14.4956 15.30163609    12
STARLINK-31491          
1 59011C 24036P   26120.63034722  .00042612  00000+0  14372-2 0  1208
2 59011  53.1580 197.2452 0001116  77.7837 160.6945 15.30147047    12
STARLINK-31465          
1 59012C 24036Q   26120.60187500  .00041665  00000+0  14041-2 0  1209
2 59012  53.1576 197.3200 0001258  76.5619  34.0064 15.30175554    12
STARLINK-31389          
1 59013C 24036R   26120.63104167  .00064120  00000+0  21604-2 0  1205
2 59013  53.1579 197.2187 0001349  83.7350 170.0658 15.30168856    19
STARLINK-31454          
1 59014C 24036S   26120.59840278  .00024859  00000+0  83746-3 0  1202
2 59014  53.1572 197.3006 0001187  82.9157  25.9513 15.30193329    11
STARLINK-31521          
1 59015C 24036T   26120.62965278  .00029459  00000+0  99292-3 0  1209
2 59015  53.1570 197.1441 0001191  81.4747 205.4738 15.30175573    10
STARLINK-31526          
1 59016C 24036U   26120.62548611  .00044385  00000+0  14964-2 0  1205
2 59016  53.1572 171.5497 0001188  74.8004 189.5597 15.30159945    18
STARLINK-31406          
1 59017C 24036V   26120.63798611  .00051116  00000+0  15103-2 0  1200
2 59017  53.1606 183.5156 0001231  81.9580 305.4289 15.34364195    15
STARLINK-31527          
1 59018C 24036W   26120.60187500  .00035250  00000+0  11879-2 0  1204
2 59018  53.1574 197.1775 0001136  85.5131 100.6686 15.30178991    13
STARLINK-31436          
1 59019C 24036X   26120.63243056  .00062901  00000+0  21183-2 0  1209
2 59019  53.1583 197.2450 0001381  81.6458 162.3281 15.30186140    17
STARLINK-30996          
1 59023C 24038A   26120.62826389 -.00032655  00000+0 -11828-2 0  1201
2 59023  43.0027  93.7308 0001610 267.1320   1.6373 15.27593175    12
STARLINK-31006          
1 59024C 24038B   26120.59909722  .00028427  00000+0  10295-2 0  1208
2 59024  43.0038  43.4511 0001751 262.6697 311.3418 15.27567583    11
STARLINK-31178          
1 59025C 24038C   26120.62618056 -.00028775  00000+0 -10423-2 0  1201
2 59025  43.0024  93.8760 0001563 271.3200 289.3972 15.27590856    18
STARLINK-30863          
1 59027C 24038E   26120.58729167 -.00028103  00000+0 -10177-2 0  1205
2 59027  43.0001  94.3702 0001472 276.4372 309.8986 15.27597434    14
STARLINK-31206          
1 59028C 24038F   26120.60604167  .00054527  00000+0  19742-2 0  1205
2 59028  43.0039  28.8215 0001421 264.9737 174.9625 15.27564791    19
STARLINK-31224          
1 59029C 24038G   26120.62965278 -.00025503  00000+0 -92375-3 0  1209
2 59029  43.0003  93.4866 0001210 262.2041 113.2799 15.27590033    12
STARLINK-31186          
1 59030C 24038H   26120.64215278 -.00030184  00000+0 -10932-2 0  1200
2 59030  43.0021  93.8340 0001507 269.0585 358.3651 15.27595744    15
STARLINK-31211          
1 59031C 24038J   26120.60881944 -.00030478  00000+0 -11040-2 0  1203
2 59031  42.9996  93.5354 0000938 268.9374  20.1437 15.27591556    11
STARLINK-30862          
1 59032C 24038K   26120.64701389 -.00012976  00000+0 -47001-3 0  1202
2 59032  43.0021  82.7487 0000751 253.0999 344.3479 15.27584914    18
STARLINK-31210          
1 59033C 24038L   26120.64701389 -.00022307  00000+0 -80790-3 0  1204
2 59033  43.0025  90.2157 0001456 264.8049  90.3779 15.27591432    14
STARLINK-31231          
1 59034C 24038M   26120.62826389 -.00030688  00000+0 -11114-2 0  1205
2 59034  43.0024  90.2705 0001778 268.9058   4.2643 15.27596450    14
STARLINK-31207          
1 59035C 24038N   26120.64631944 -.00034103  00000+0 -12365-2 0  1204
2 59035  43.0026  90.1171 0001438 274.1723 119.6497 15.27562010    17
STARLINK-31217          
1 59036C 24038P   26120.59631944  .00050642  00000+0  18330-2 0  1201
2 59036  43.0020 356.0797 0001702 257.6475 289.8793 15.27575519    11
STARLINK-31208          
1 59037C 24038Q   26120.64493056 -.00025611  00000+0 -92696-3 0  1206
2 59037  43.0005  94.0756 0001382 267.5551 254.8628 15.27614587    16
STARLINK-31235          
1 59038C 24038R   26120.64909722 -.00017631  00000+0 -63901-3 0  1209
2 59038  43.0027  90.0667 0001316 268.0593 155.1682 15.27566682    12
STARLINK-31220          
1 59039C 24038S   26120.61298611 -.00030340  00000+0 -10988-2 0  1203
2 59039  43.0030  93.7457 0001532 278.2437 294.7231 15.27598186    18
STARLINK-31225          
1 59040C 24038T   26120.64770833 -.00018523  00000+0 -67093-3 0  1208
2 59040  43.0018  89.8535 0001211 269.7540 223.7259 15.27585665    13
STARLINK-31240          
1 59041C 24038U   26120.63590278 -.00026770  00000+0 -96944-3 0  1201
2 59041  42.9997  90.4656 0001471 267.4515 308.7137 15.27597036    19
STARLINK-31202          
1 59042C 24038V   26120.60604167 -.00015693  00000+0 -56845-3 0  1200
2 59042  43.0000  89.8273 0001380 262.1653 129.1980 15.27584537    11
STARLINK-31234          
1 59043C 24038W   26120.64006944 -.00027458  00000+0 -99450-3 0  1205
2 59043  43.0011  90.3550 0001484 264.5937   9.9080 15.27592536    19
STARLINK-31153          
1 59044C 24038X   26120.59631944 -.00024423  00000+0 -88467-3 0  1209
2 59044  43.0029  90.3137 0001356 271.7466 242.1616 15.27587688    13
STARLINK-31241          
1 59045C 24038Y   26120.63243056 -.00026996  00000+0 -97776-3 0  1208
2 59045  43.0000  90.4488 0001466 262.7387 308.4847 15.27592462    15
STARLINK-31205          
1 59046C 24038Z   26120.62131944 -.00027043  00000+0 -97897-3 0  1208
2 59046  43.0019  90.4091 0001420 259.8008 292.6317 15.27609682    12
STARLINK-31265          
1 59074C 24041A   26120.60256944  .00057399  00000+0  20786-2 0  1206
2 59074  43.0039  17.5349 0001475 266.4572 351.9704 15.27555930    16
STARLINK-31276          
1 59075C 24041B   26120.59631944  .00058776  00000+0  21281-2 0  1203
2 59075  43.0017  17.1538 0001651 263.5078 137.3600 15.27560601    16
STARLINK-31259          
1 59076C 24041C   26120.61090278  .00056567  00000+0  20485-2 0  1207
2 59076  43.0013  17.1225 0001696 270.2848 189.6527 15.27555629    17
STARLINK-31281          
1 59077C 24041D   26120.61645833  .00057172  00000+0  20698-2 0  1200
2 59077  43.0014  17.1407 0001539 259.2734 210.0271 15.27565115    14
STARLINK-31274          
1 59078C 24041E   26120.63868056  .00061443  00000+0  22246-2 0  1204
2 59078  43.0039  17.3977 0001487 261.8488 167.0989 15.27560461    19
STARLINK-31257          
1 59079C 24041F   26120.60048611  .00062077  00000+0  22475-2 0  1207
2 59079  43.0022  17.3965 0001535 260.6189  50.0074 15.27561232    11
STARLINK-31292          
1 59081C 24041H   26120.62270833  .00056305  00000+0  20389-2 0  1204
2 59081  43.0011  17.1548 0001573 267.3965 215.0986 15.27557219    10
STARLINK-31286          
1 59082C 24041J   26120.63104167  .00055529  00000+0  20107-2 0  1207
2 59082  43.0022  17.1585 0001522 269.0489 238.1055 15.27560225    12
STARLINK-31252          
1 59083C 24041K   26120.63312500 -.00054281  00000+0 -19651-2 0  1208
2 59083  43.0026 294.1709 0001490 267.4657 284.8867 15.27621273    15
STARLINK-31261          
1 59084C 24041L   26120.63590278  .00065583  00000+0  23741-2 0  1209
2 59084  43.0037  17.4963 0001880 266.3755 111.8888 15.27562812    11
